satname,norad_id,inclination_deg,eccentricity,mean_motion_rev_per_day,perigee_km,apogee_km,l1,l2
STARLINK-1008,44714,53.0554,0.0001472,15.064041,546.1795825992549,548.218401515317,1 44714U 19074B   25302.47076205  .00000257  00000+0  36179-4 0  9997,2 44714  53.0554  55.6800 0001472  91.9997 268.1160 15.06404100328970
STARLINK-1010,44716,53.0425,0.0005494,15.97796985,276.8739770191596,284.1905227909556,1 44716U 19074D   25302.58336806  .00486178  11033-3  10535-2 0  9995,2 44716  53.0425 341.8256 0005494  52.8143  99.7562 15.97796985  6018
STARLINK-1011,44717,53.0474,0.0003821,15.8456933,314.9792560099295,320.096090595267,1 44717U 19074E   25302.58336806  .00266921  00000+0  11052-2 0  9991,2 44717  53.0474  38.7660 0003821 307.8522 294.6722 15.84569330  5729
STARLINK-1012,44718,53.058,0.0001941,15.06410562,545.8349832467029,548.5233909905428,1 44718U 19074F   25302.51498551  .00000758  00000+0  69798-4 0  9997,2 44718  53.0580  55.4826 0001941  87.7257 272.3954 15.06410562328979
STARLINK-1017,44723,53.051,0.0001463,15.14777273,520.6453834590175,522.6642625464274,1 44723U 19074L   25302.50059374  .00050437  00000+0  26838-2 0  9993,2 44723  53.0510  52.2612 0001463 210.6222 149.4685 15.14777273329020
STARLINK-1019,44724,53.0536,0.0001626,15.11985815,529.0212798363536,531.267853001752,1 44724U 19074M   25302.58336806  .01013557  00000+0  54213-1 0  9990,2 44724  53.0536  55.0930 0001626  88.9850 347.5491 15.11985815  5787
STARLINK-1020,44725,53.0541,0.0001392,15.06402531,546.2397933591983,548.1678082381404,1 44725U 19074N   25302.51684845  .00001774  00000+0  13796-3 0  9993,2 44725  53.0541  75.4760 0001392  94.2640 265.8508 15.06402531328690
STARLINK-1031,44736,53.0503,0.0005005,15.47095523,421.8226595137803,428.632827622092,1 44736U 19074Z   25302.46886652  .00098194  00000+0  18911-2 0  9994,2 44736  53.0503  45.5941 0005005 230.7773 129.2789 15.47095523329125
STARLINK-1036,44741,53.054,0.0001316,15.06400751,546.2978806650772,548.1206317997185,1 44741U 19074AE  25302.08190077  .00000562  00000+0  56621-4 0  9991,2 44741  53.0540  77.4270 0001316  81.6830 278.4308 15.06400751328636
STARLINK-1039,44744,53.0492,0.0006236,15.12541301,524.1461198476354,532.7600189822097,1 44744U 19074AH  25302.15854871  .00049182  00000+0  27862-2 0  9995,2 44744  53.0492  95.1525 0006236 139.6500 220.4955 15.12541301328391
STARLINK-1042,44747,53.0482,0.0003289,15.42984491,435.06509255272704,439.54829141331265,1 44747U 19074AL  25302.45373795  .00024679  00000+0  55904-3 0  9995,2 44747  53.0482   1.1699 0003289  89.9051 270.2330 15.42984491329761
STARLINK-1043,44748,53.0539,0.0001227,15.06401057,546.3585785168416,548.0580582579742,1 44748U 19074AM  25301.85521101  .00000662  00000+0  63305-4 0  9996,2 44748  53.0539  98.4448 0001227  83.6223 276.4906 15.06401057328328
STARLINK-1046,44751,53.0564,0.0001407,15.064,546.2371613961759,548.1859544803801,1 44751U 19074AQ  25302.13534701  .00000050  00000+0  22225-4 0  9999,2 44751  53.0564  97.1863 0001407  90.7438 269.3712 15.06400000328361
STARLINK-1047,44752,53.0721,0.0003644,15.2917658,475.774045557273,480.77099681631444,1 44752U 19074AR  25302.53724541  .00014441  00000+0  51456-3 0  9993,2 44752  53.0721  37.1300 0003644 153.0008 207.1181 15.29176580329255
STARLINK-1048,44753,53.0558,0.0001371,15.06440545,546.1378478889274,548.0367443909281,1 44753U 19074AS  25302.49286505 -.00006494  00000+0 -41702-3 0  9996,2 44753  53.0558  55.5864 0001371 121.3504 238.7619 15.06440545328971
STARLINK-1053,44758,53.0421,0.0002845,15.60111814,385.40902854289743,389.258581430935,1 44758U 19074AX  25302.49176950  .00060840  00000+0  73652-3 0  9995,2 44758  53.0421  14.6729 0002845  23.7173 336.3970 15.60111814329560
STARLINK-1054,44759,53.0371,0.0005664,15.90367425,297.47068813828537,305.03710214430157,1 44759U 19074AY  25302.58336806  .00437782  83309-4  14102-2 0  9999,2 44759  53.0371  38.5470 0005664 324.3230   8.7919 15.90367425  5983
STARLINK-1056,44761,53.0373,0.0004448,16.05258393,256.93018295447564,262.8353653455597,1 44761U 19074BA  25302.93330639  .00610444  19094-3  85518-3 0  9996,2 44761  53.0373  22.5980 0004448  14.4193 345.6965 16.05258393329489
STARLINK-1060,44765,53.0531,0.0003099,15.62133356,379.40098066223436,383.590601066011,1 44765U 19074BE  25302.58336806  .00126239  00000+0  13963-2 0  9994,2 44765  53.0531  60.4300 0003099 350.8775 355.6652 15.62133356  5804
STARLINK-1063,44768,53.0541,0.0001288,15.06406877,546.2984988243779,548.0824631834839,1 44768U 19074BH  25302.52236337  .00000990  00000+0  85352-4 0  9997,2 44768  53.0541  95.4512 0001288  91.0274 269.0862 15.06406877328434
STARLINK-1067,44771,53.0545,0.0001342,15.06404989,546.2668876895395,548.1256471385122,1 44771U 19074BL  25301.18437076 -.00001220  00000+0 -63029-4 0  9991,2 44771  53.0545 101.4563 0001342  95.7653 264.3489 15.06404989328221
STARLINK-1068,44772,53.0534,0.0001279,15.06398653,546.3299336937725,548.1014389109287,1 44772U 19074BM  25301.10882189  .00001792  00000+0  13918-3 0  9996,2 44772  53.0534  81.7960 0001279  89.7014 270.4121 15.06398653328483
STARLINK-1112,44925,53.0492,0.0005056,15.54542307,400.0546255734189,406.91220013489783,1 44925U 20001M   25301.88938009  .00045421  00000+0  67972-3 0  9992,2 44925  53.0492 176.9555 0005056 136.8075 223.3333 15.54542307320564
STARLINK-1114,44927,53.0547,0.0001454,15.0640027,546.2037848672844,548.2176759872937,1 44927U 20001P   25302.47445698  .00006229  00000+0  43671-3 0  9990,2 44927  53.0547 215.6703 0001454  93.4961 266.6195 15.06400270320074
STARLINK-1123,44930,53.0534,0.0001503,15.06398437,546.1754677040553,548.2572289205582,1 44930U 20001S   25302.09112583  .00004534  00000+0  32310-3 0  9991,2 44930  53.0534 217.3881 0001503  89.4258 270.6903 15.06398437320016
STARLINK-1144,44933,53.043,0.0012242,15.59550624,380.67242666754737,397.24097888943015,1 44933U 20001V   25301.91671296  .00135395  00000+0  16464-2 0  9996,2 44933  53.0430 153.9797 0012242  88.1089   3.9458 15.59550624  5822
STARLINK-1091,44940,53.0322,0.000456,16.00525679,269.92907035044027,275.9948726124321,1 44940U 20001AC  25302.54947742  .00510379  12538-3  94780-3 0  9996,2 44940  53.0322 127.4705 0004560 281.5349  78.5168 16.00525679321306
STARLINK-1094,44941,53.0534,0.0001673,15.06423178,545.981922687979,548.2991205467115,1 44941U 20001AD  25302.43574005  .00002301  00000+0  17319-3 0  9994,2 44941  53.0534 195.8420 0001673  82.7891 277.3288 15.06423178320341
STARLINK-1096,44942,52.9868,0.0008009,15.89601187,298.04893125592844,308.75141750184866,1 44942U 20001AE  25302.58336806  .00276320  38918-4  92776-3 0  9994,2 44942  52.9868 315.0921 0008009  41.0379 103.2196 15.89601187  6009
STARLINK-1122,44949,53.0535,0.0001324,15.06411118,546.2605714415786,548.0943947166979,1 44949U 20001AM  25301.86075196  .00011900  00000+0  81619-3 0  9994,2 44949  53.0535 198.4189 0001324  96.2426 263.8713 15.06411118320252
STARLINK-1080,44961,53.0528,0.0001389,15.06412567,546.2111165961624,548.1349677258759,1 44961U 20001AZ  25302.38968477  .00010824  00000+0  74419-3 0  9993,2 44961  53.0528 176.0487 0001389  85.1854 274.9294 15.06412567320621
STARLINK-1090,44968,53.0532,0.0001439,15.06407285,546.192676107913,548.1857849970665,1 44968U 20001BG  25302.39336485  .00003570  00000+0  25837-3 0  9999,2 44968  53.0532 176.0325 0001439  92.2271 267.8883 15.06407285320628
STARLINK-1107,44972,53.0075,0.000446,15.67536983,362.9444119079826,368.9601395419277,1 44972U 20001BL  25302.58336806  .00166265  00000+0  14749-2 0  9992,2 44972  53.0075  90.5302 0004460 254.0188 143.1245 15.67536983  5782
STARLINK-1132,45044,53.0542,0.0001362,15.06406277,546.2490900507628,548.135549757505,1 45044U 20006A   25302.55185700  .00001293  00000+0  10568-3 0  9995,2 45044  53.0542 135.3211 0001362  85.6018 274.5127 15.06406277316976
STARLINK-1131,45047,53.0541,0.0001579,15.06394532,546.1348014379391,548.3218318049285,1 45047U 20006D   25301.86450830  .00000740  00000+0  68566-4 0  9998,2 45047  53.0541 158.9454 0001579  90.2984 269.8186 15.06394532316581
STARLINK-1134,45048,53.0401,0.0012282,15.26667851,477.3514930892361,494.21202312665173,1 45048U 20006E   25297.87285069  .00016521  00000+0  63194-3 0  9999,2 45048  53.0401 155.6330 0012282 116.8822 243.3433 15.26667851316281
STARLINK-1156,45054,53.0519,0.0001377,15.06410634,546.2253504429982,548.1325824601599,1 45054U 20006L   25302.29938034  .00004425  00000+0  31567-3 0  9995,2 45054  53.0519 156.4532 0001377  94.5064 265.6082 15.06410634316655
STARLINK-1159,45057,53.0561,0.0001573,15.21875611,499.1014602222558,501.26537982639456,1 45057U 20006P   25302.58336806  .00360172  00000+0  14890-1 0  9991,2 45057  53.0561 154.6002 0001573  91.5659 227.4813 15.21875611  5540
STARLINK-1166,45060,53.053,0.0001453,15.06404717,546.1908500054924,548.2033520952573,1 45060U 20006S   25302.32517968  .00005550  00000+0  39111-3 0  9998,2 45060  53.0530 156.3390 0001453  83.1270 276.9884 15.06404717316665
STARLINK-1169,45061,53.0527,0.0001246,15.06406663,546.3282409923413,548.054032764051,1 45061U 20006T   25302.33254383  .00003911  00000+0  28128-3 0  9994,2 45061  53.0527 156.3060 0001246  95.0855 265.0276 15.06406663316663
STARLINK-1171,45062,53.0541,5.59e-05,15.28867736,478.81253303204176,479.57918284555853,1 45062U 20006U   25302.33134690  .00013707  00000+0  49371-3 0  9990,2 45062  53.0541 154.3527 0000559  87.3852 272.7210 15.28867736316695
STARLINK-1133,45064,53.0542,0.0001391,15.06398627,546.2524494189765,548.179082558474,1 45064U 20006W   25301.86628080  .00002108  00000+0  16036-3 0  9995,2 45064  53.0542 138.3950 0001391  90.5718 269.5430 15.06398627316874
STARLINK-1167,45071,53.0534,0.0001444,15.06405006,546.1961971954706,548.1962334280524,1 45071U 20006AD  25302.55553730  .00001241  00000+0  10220-3 0  9995,2 45071  53.0534 135.3032 0001444  91.2637 268.8517 15.06405006316977
